[{"OBJECT_NAME":"HORS 2","OBJECT_ID":"2023-091AG","EPOCH":"2026-03-09T22:11:34.810944","MEAN_MOTION":15.2928008,"ECCENTRICITY":0.00098173,"INCLINATION":97.5195,"RA_OF_ASC_NODE":134.7443,"ARG_OF_PERICENTER":79.3164,"MEAN_ANOMALY":280.9181,"EPHEMERIS_TYPE":0,"CLASSIFICATION_TYPE":"U","NORAD_CAT_ID":57196,"ELEMENT_SET_NO":999,"REV_AT_EPOCH":14934,"BSTAR":0.00059338338,"MEAN_MOTION_DOT":0.00016821,"MEAN_MOTION_DDOT":0},{"OBJECT_NAME":"STARLINK-31956","OBJECT_ID":"2024-106J","EPOCH":"2026-03-08T04:31:34.799808","MEAN_MOTION":15.27591276,"ECCENTRICITY":9.028e-5,"INCLINATION":43.0006,"RA_OF_ASC_NODE":340.967,"ARG_OF_PERICENTER":260.5874,"MEAN_ANOMALY":99.4876,"EPHEMERIS_TYPE":0,"CLASSIFICATION_TYPE":"U","NORAD_CAT_ID":59930,"ELEMENT_SET_NO":999,"REV_AT_EPOCH":10029,"BSTAR":0.00017239806,"MEAN_MOTION_DOT":4.487e-5,"MEAN_MOTION_DDOT":0}]
